
# Worst residual: 91.08 km
# MJD 60312.000000 (2024 Jan  3  0:00)
A10Zuus = A10Zol2
1 79947U 23999ZYW 24003.49919926  .00000000  00000-0  00000-0 0 21899
2 79947 021.6471 324.5708 6495957 354.6469 202.7002 00.84079657    09

# Worst residual: 60.99 km
# MJD 60313.000000 (2024 Jan  4  0:00)
A10Zuus = A10Zol2
1 79947U 23999ZYW 24004.49919926  .00000000  00000-0  00000-0 0 21890
2 79947 021.5783 324.5537 6539541 355.2774 145.3107 00.83992148    04

# Worst residual: 106.52 km
# MJD 60314.000000 (2024 Jan  5  0:00)
A10Zuus = A10Zol2
1 79947U 23999ZYW 24005.49919926  .00000000  00000-0  00000-0 0 21891
2 79947 021.5036 324.5229 6599143 355.8252 088.0801 00.84146784    06

# Worst residual: 117.42 km
# MJD 60315.000000 (2024 Jan  6  0:00)
A10Zuus = A10Zol2
1 79947U 23999ZYW 24006.49919926  .00000000  00000-0  00000-0 0 21892
2 79947 021.4127 324.4954 6647023 356.3405 030.7122 00.84443218    09

# Worst residual: 124.07 km
# MJD 60316.000000 (2024 Jan  7  0:00)
A10Zuus = A10Zol2
1 79947U 23999ZYW 24007.49919926  .00000000  00000-0  00000-0 0 21893
2 79947 021.3118 324.4894 6696301 356.9284 332.9364 00.84567757    05

# Worst residual: 162.45 km
# MJD 60317.000000 (2024 Jan  8  0:00)
A10Zuus = A10Zol2
1 79947U 23999ZYW 24008.49919926  .00000000  00000-0  00000-0 0 21894
2 79947 021.2236 324.4981 6747013 357.3817 275.3318 00.84380067    02

# Worst residual: 87.68 km
# MJD 60318.000000 (2024 Jan  9  0:00)
A10Zuus = A10Zol2
1 79947U 23999ZYW 24009.49919926  .00000000  00000-0  00000-0 0 21895
2 79947 021.1424 324.5059 6775408 357.8257 217.9061 00.84111940    08

# Worst residual: 74.43 km
# MJD 60319.000000 (2024 Jan 10  0:00)
A10Zuus = A10Zol2
1 79947U 23999ZYW 24010.49919926  .00000000  00000-0  00000-0 0 21897
2 79947 021.0466 324.4749 6813444 358.4346 160.5098 00.84006603    09

# Worst residual: 107.57 km
# MJD 60320.000000 (2024 Jan 11  0:00)
A10Zuus = A10Zol2
1 79947U 23999ZYW 24011.49919926  .00000000  00000-0  00000-0 0 21898
2 79947 020.9708 324.4109 6865048 359.0454 103.1770 00.84104830    01

# Worst residual: 130.82 km
# MJD 60321.000000 (2024 Jan 12  0:00)
A10Zuus = A10Zol2
1 79947U 23999ZYW 24012.49919926  .00000000  00000-0  00000-0 0 21899
2 79947 020.8528 324.3748 6911240 359.5528 045.8358 00.84371604    00

# Worst residual: 98.16 km
# MJD 60322.000000 (2024 Jan 13  0:00)
A10Zuus = A10Zol2
1 79947U 23999ZYW 24013.49919926  .00000000  00000-0  00000-0 0 21890
2 79947 020.7171 324.3449 6953700 000.1345 348.0944 00.84553126    04

# Worst residual: 162.80 km
# MJD 60323.000000 (2024 Jan 14  0:00)
A10Zuus = A10Zol2
1 79947U 23999ZYW 24014.49919926  .00000000  00000-0  00000-0 0 21891
2 79947 020.6277 324.3396 7000916 000.6329 290.3708 00.84418010    00

# Worst residual: 85.15 km
# MJD 60324.000000 (2024 Jan 15  0:00)
A10Zuus = A10Zol2
1 79947U 23999ZYW 24015.49919926  .00000000  00000-0  00000-0 0 21892
2 79947 020.5147 324.3213 7025479 001.0656 232.9349 00.84144477    08

# Worst residual: 76.11 km
# MJD 60325.000000 (2024 Jan 16  0:00)
A10Zuus = A10Zol2
1 79947U 23999ZYW 24016.49919926  .00000000  00000-0  00000-0 0 21893
2 79947 020.4041 324.2714 7057099 001.6684 175.4852 00.84023802    03

# Worst residual: 100.96 km
# MJD 60326.000000 (2024 Jan 17  0:00)
A10Zuus = A10Zol2
1 79947U 23999ZYW 24017.49919926  .00000000  00000-0  00000-0 0 21894
2 79947 020.2984 324.2255 7100629 002.2708 118.1133 00.84071457    04

# Worst residual: 124.20 km
# MJD 60327.000000 (2024 Jan 18  0:00)
A10Zuus = A10Zol2
1 79947U 23999ZYW 24018.49919926  .00000000  00000-0  00000-0 0 21895
2 79947 020.1914 324.1483 7145351 002.8069 060.7832 00.84298144    07

# Worst residual: 96.14 km
# MJD 60328.000000 (2024 Jan 19  0:00)
A10Zuus = A10Zol2
1 79947U 23999ZYW 24019.49919926  .00000000  00000-0  00000-0 0 21896
2 79947 020.0280 324.0794 7180735 003.3940 003.1118 00.84543445    00

# Worst residual: 158.01 km
# MJD 60329.000000 (2024 Jan 20  0:00)
A10Zuus = A10Zol2
1 79947U 23999ZYW 24020.49919926  .00000000  00000-0  00000-0 0 21898
2 79947 019.8859 324.0320 7221895 003.9503 305.3170 00.84455185    05

# Worst residual: 123.04 km
# MJD 60330.000000 (2024 Jan 21  0:00)
A10Zuus = A10Zol2
1 79947U 23999ZYW 24021.49919926  .00000000  00000-0  00000-0 0 21899
2 79947 019.7682 324.0053 7251057 004.3730 247.8576 00.84214329    04

# Worst residual: 68.70 km
# MJD 60331.000000 (2024 Jan 22  0:00)
A10Zuus = A10Zol2
1 79947U 23999ZYW 24022.49919926  .00000000  00000-0  00000-0 0 21890
2 79947 019.6351 323.9517 7272909 004.9389 190.3770 00.84046333    00

# Worst residual: 69.19 km
# MJD 60332.000000 (2024 Jan 23  0:00)
A10Zuus = A10Zol2
1 79947U 23999ZYW 24023.49919926  .00000000  00000-0  00000-0 0 21891
2 79947 019.5100 323.8611 7307245 005.5744 132.9795 00.84042616    08

# Worst residual: 117.08 km
# MJD 60333.000000 (2024 Jan 24  0:00)
A10Zuus = A10Zol2
1 79947U 23999ZYW 24024.49919926  .00000000  00000-0  00000-0 0 21892
2 79947 019.3826 323.7451 7348949 006.1454 075.6600 00.84232841    02

# Worst residual: 120.91 km
# MJD 60334.000000 (2024 Jan 25  0:00)
A10Zuus = A10Zol2
1 79947U 23999ZYW 24025.49919926  .00000000  00000-0  00000-0 0 21893
2 79947 019.2146 323.6298 7381337 006.7362 018.0921 00.84505495    01

# Worst residual: 140.96 km
# MJD 60335.000000 (2024 Jan 26  0:00)
A10Zuus = A10Zol2
1 79947U 23999ZYW 24026.49919926  .00000000  00000-0  00000-0 0 21894
2 79947 019.0364 323.5411 7418124 007.3424 320.2440 00.84485555    06

# Worst residual: 144.20 km
# MJD 60336.000000 (2024 Jan 27  0:00)
A10Zuus = A10Zol2
1 79947U 23999ZYW 24027.49919926  .00000000  00000-0  00000-0 0 21895
2 79947 018.8870 323.4691 7448413 007.8313 262.6676 00.84259282    06

# Worst residual: 66.99 km
# MJD 60337.000000 (2024 Jan 28  0:00)
A10Zuus = A10Zol2
1 79947U 23999ZYW 24028.49919926  .00000000  00000-0  00000-0 0 21896
2 79947 018.7310 323.3955 7462508 008.3769 205.1849 00.84057299    06

# Worst residual: 56.85 km
# MJD 60338.000000 (2024 Jan 29  0:00)
A10Zuus = A10Zol2
1 79947U 23999ZYW 24029.49919926  .00000000  00000-0  00000-0 0 21897
2 79947 018.5853 323.2685 7488780 009.0478 147.7497 00.84025450    04

# Worst residual: 110.45 km
# MJD 60339.000000 (2024 Jan 30  0:00)
A10Zuus = A10Zol2
1 79947U 23999ZYW 24030.49919926  .00000000  00000-0  00000-0 0 21899
2 79947 018.4583 323.1079 7527527 009.6702 090.3886 00.84188183    06

# Worst residual: 134.28 km
# MJD 60340.000000 (2024 Jan 31  0:00)
A10Zuus = A10Zol2
1 79947U 23999ZYW 24031.49919926  .00000000  00000-0  00000-0 0 21890
2 79947 018.2778 322.9527 7554229 010.2893 032.8566 00.84455103    08

# Worst residual: 121.80 km
# MJD 60341.000000 (2024 Feb  1  0:00)
A10Zuus = A10Zol2
1 79947U 23999ZYW 24032.49919926  .00000000  00000-0  00000-0 0 21891
2 79947 018.0783 322.7770 7582398 010.9768 335.0081 00.84508796    03

# Worst residual: 135.25 km
# MJD 60342.000000 (2024 Feb  2  0:00)
A10Zuus = A10Zol2
1 79947U 23999ZYW 24033.49919926  .00000000  00000-0  00000-0 0 21892
2 79947 017.9097 322.6667 7608978 011.5041 277.3848 00.84292579    05
